SL-3 R/B                
1 19046U 88032B   23321.55766256  .00003161  00000+0  20978-3 0  9993
2 19046  97.4310 304.8649 0031613 268.7550  91.0056 15.07543605924559
SL-16 R/B               
1 19120U 88039B   23321.54084538 -.00000076  00000+0 -13391-4 0  9994
2 19120  71.0162  51.0365 0022558 199.2386 160.7889 14.19355482838732
COSMOS 1953             
1 19210U 88050A   23321.35658025  .00005627  00000+0  32577-3 0  9995
2 19210  82.5144 275.4852 0015796 177.0921 183.0404 15.11937266909679
SL-8 R/B                
1 19257U 88053B   23321.22954816  .00000297  00000+0  10678-3 0  9998
2 19257  74.0482 226.0424 0021528 256.5893 268.7627 14.37979424855317
COSMOS 1975             
1 19573U 88093A   23321.27229746  .00003695  00000+0  21855-3 0  9999
2 19573  82.5299 232.6122 0013961 230.2984 129.7016 15.11097192891334
SL-14 R/B               
1 19574U 88093B   23321.55242171  .00000567  00000+0  64939-4 0  9994
2 19574  82.5294 112.5607 0020117 307.9002 119.5050 14.84103208875914
SL-16 R/B               
1 19650U 88102B   23321.53186306 -.00000268  00000+0 -11183-3 0  9997
2 19650  70.9977 125.2734 0015796 222.0644 137.9267 14.15924453807530
INTERCOSMOS 24          
1 20261U 89080A   23321.44461912  .00000666  00000+0  18794-3 0  9997
2 20261  82.6030 292.1459 1198741  86.5486 287.1650 12.57350182560725
SL-14 R/B               
1 20262U 89080C   23321.51097135  .00000411  00000+0  12477-3 0  9998
2 20262  82.5958 354.2982 1233656 310.8013  39.2225 12.49513562554809
DELTA 1 R/B             
1 20323U 89089B   23321.49117795  .00000527  00000+0  14362-3 0  9990
2 20323  97.0902 284.5609 0069223 262.2804  97.0529 14.49131462773542
ARIANE 40 R/B           
1 20443U 90005H   23321.43685098  .00000343  00000+0  12587-3 0  9996
2 20443  98.4228  26.2579 0009829 211.3196 148.7407 14.38688118771509
DELTA 2 R/B(1)          
1 20453U 90008B   23321.58287467  .00007831  00000+0  33852-3 0  9991
2 20453  35.6216  44.8018 0225528 357.6172   2.3463 15.01833949797474
COSMOS 2058             
1 20465U 90010A   23321.53400697  .00002374  00000+0  18088-3 0  9995
2 20465  82.4858 150.4695 0013444 313.4805  46.5301 15.01576943815299
SL-14 R/B               
1 20466U 90010B   23321.49434351  .00000445  00000+0  52883-4 0  9994
2 20466  82.5019 338.4328 0019983 192.1369 167.9366 14.82114947803524
SL-14 R/B               
1 20511U 90018B   23321.41029319  .00000586  00000+0  72944-4 0  9995
2 20511  82.5203 290.4678 0016809 349.3460 124.4541 14.80741506797729
HST                     
1 20580U 90037B   23321.47205098  .00004428  00000+0  22191-3 0  9995
2 20580  28.4705 326.9694 0002541 233.6524 255.4390 15.14859094644715
SL-16 R/B               
1 20625U 90046B   23321.56514997 -.00000209  00000+0 -83533-4 0  9999
2 20625  70.9985 268.3030 0013070 154.9318 205.2441 14.14784166729131
COSMOS 2084             
1 20663U 90055A   23321.35471600  .00001901  00000+0  15732-3 0  9994
2 20663  62.7914 313.5225 0128415 100.2913 261.2691 14.96515147809698
SL-6 R/B(2)             
1 20666U 90055D   23321.16220899  .00002220  00000+0  18823-3 0  9997
2 20666  62.7839 227.8324 0112185 122.1422 239.0618 14.96418105811634
SL-8 R/B                
1 20775U 90078B   23321.60915417  .00007807  00000+0  33371-3 0  9990
2 20775  82.9189 267.8883 0496095 253.9577 100.6469 14.53376813685380
SL-8 R/B                
1 21088U 91006B   23321.61211700  .00000130  00000+0  11541-3 0  9992
2 21088  82.9425  77.1481 0021590 234.4636 135.7424 13.77292275648014
OKEAN-3                 
1 21397U 91039A   23321.59508908  .00002685  00000+0  23371-3 0  9998
2 21397  82.5213  68.4977 0015694 308.5751  51.4064 14.96495167738583
COSMOS 2151             
1 21422U 91042A   23321.56158620  .00001435  00000+0  12987-3 0  9993
2 21422  82.4997 173.4165 0014573  25.0599 335.1326 14.94635108737011
SL-14 R/B               
1 21423U 91042B   23321.41314035  .00000517  00000+0  64336-4 0  9998
2 21423  82.4912 290.1743 0018725 126.6865 233.6072 14.80470786728244
ERS-1                   
1 21574U 91050A   23321.49408077  .00000256  00000+0  98617-4 0  9991
2 21574  98.7603 303.6518 0032499 180.1268 179.9916 14.38293949694477
ARIANE 40 R/B           
1 21610U 91050F   23321.43641865  .00000396  00000+0  13487-3 0  9996
2 21610  98.3201  24.2089 0004317 103.9460 256.2210 14.41575894697444
INTERCOSMOS 25          
1 21819U 91086A   23321.52040707  .00002822  00000+0  55717-3 0  9992
2 21819  82.6027  98.1414 1504991 128.8545 245.6814 12.07889637394712
SL-8 R/B                
1 21876U 92008B   23321.39277252  .00000026  00000+0  11104-4 0  9999
2 21876  82.9273 174.8196 0034282 331.7594 202.1450 13.75781688593458
SL-8 R/B                
1 21938U 92020B   23321.58464961  .00000119  00000+0  10723-3 0  9996
2 21938  82.9323  59.8836 0030309 129.5830 242.3060 13.75382642585235
COSMOS 2219             
1 22219U 92076A   23321.45646106  .00000390  00000+0  23077-3 0  9996
2 22219  71.0599 340.4449 0016649  44.3918 315.8536 14.13797771599182
SL-16 R/B               
1 22220U 92076B   23321.58635189 -.00000033  00000+0  75292-5 0  9994
2 22220  70.9988 164.0141 0014935 295.9812  78.0920 14.16603119602428
COSMOS 2221             
1 22236U 92080A   23321.53608434  .00001522  00000+0  15291-3 0  9998
2 22236  82.5079   3.0499 0017102 132.2769 227.9903 14.90526871654947
SL-16 R/B               
1 22285U 92093B   23321.43701139  .00000337  00000+0  19781-3 0  9992
2 22285  71.0214 334.1600 0003895 183.7794 176.3300 14.15202021593844
COSMOS 2228             
1 22286U 92094A   23321.47165757  .00001850  00000+0  18449-3 0  9999
2 22286  82.5177 320.7784 0018590 248.3203 111.6037 14.90920267650143
SL-16 R/B               
1 22566U 93016B   23321.32848433 -.00000018  00000+0  15525-4 0  9997
2 22566  71.0063 186.1890 0010155 179.4080 180.7056 14.15080343582858
COSMOS 2242             
1 22626U 93024A   23321.53013479  .00001666  00000+0  16711-3 0  9996
2 22626  82.5208 349.4327 0016733 249.3314 110.6111 14.90653603654523
SL-16 R/B               
1 22803U 93059B   23321.52574314 -.00000026  00000+0  10656-4 0  9993
2 22803  70.9910 348.8558 0015309  49.4975 310.7480 14.16972030560085
ARIANE 40 R/B           
1 22830U 93061H   23321.58949900  .00000262  00000+0  11420-3 0  9999
2 22830  98.5999  26.4699 0009891 252.6787 107.3315 14.31909203573407
COSMOS 2278             
1 23087U 94023A   23321.54261168  .00000284  00000+0  17409-3 0  9999
2 23087  71.0505 138.6430 0010599 241.2034 118.8024 14.14009331525603
SL-16 R/B               
1 23088U 94023B   23321.51542957 -.00000228  00000+0 -93520-4 0  9994
2 23088  71.0017  41.3540 0002397 189.4684 170.6394 14.14797593526820
SL-16 R/B               
1 23343U 94074B   23321.38971961  .00000493  00000+0  75793-4 0  9994
2 23343  97.8200   6.0462 0008193  83.2764 287.4130 14.77703166562631
SL-16 R/B               
1 23405U 94077B   23321.47084226  .00000140  00000+0  96643-4 0  9991
2 23405  70.9829 326.1662 0003456 320.8155  39.2717 14.15346454496914
ERS-2                   
1 23560U 95021A   23321.55756790  .00045090  00000+0  52967-3 0  9997
2 23560  98.5285 313.4790 0005167  97.1891 262.9951 15.61331566532906
ARIANE 40+ R/B          
1 23561U 95021B   23321.45999010  .00000353  00000+0  12987-3 0  9992
2 23561  98.5567  23.9304 0007692 138.0463 313.8457 14.38604978497954
SL-16 R/B               
1 23705U 95058B   23321.50766482  .00000160  00000+0  10683-3 0  9990
2 23705  71.0194 150.2024 0013825 317.0953  42.9091 14.15262055448543
SL-16 R/B               
1 24298U 96051B   23321.56084678 -.00000116  00000+0 -36025-4 0  9990
2 24298  70.8198 157.6577 0017742 295.2212  64.7068 14.12513835402596
ORBVIEW 2 (SEASTAR)     
1 24883U 97037A   23321.60099856  .00000368  00000+0  14735-3 0  9994
2 24883  98.7465  93.6660 0002783  44.2210 315.9196 14.34247369387565
SL-16 R/B               
1 25400U 98043G   23321.54460688  .00000106  00000+0  63269-4 0  9993
2 25400  98.7218 258.3838 0008968 306.6634  53.3720 14.25666188318834
SL-16 R/B               
1 25407U 98045B   23321.50239555  .00000278  00000+0  16519-3 0  9990
2 25407  71.0094 154.4585 0009290 239.6540 120.3665 14.15950419307734
ISS (ZARYA)             
1 25544U 98067A   23321.41134024  .00012504  00000+0  23159-3 0  9994
2 25544  51.6432 289.5972 0000820 300.5175 196.5715 15.49390186425557
CZ-4B R/B               
1 25732U 99025C   23321.59950463  .00000114  00000+0  76967-4 0  9990
2 25732  98.7845   4.4003 0036353 244.3666 269.5508 14.17885166268675
OKEAN-O                 
1 25860U 99039A   23321.59557755  .00000747  00000+0  11117-3 0  9991
2 25860  98.0690   9.0366 0001410 113.9959 246.1399 14.77884495309757
SL-16 R/B               
1 25861U 99039B   23321.58093258  .00000578  00000+0  84164-4 0  9999
2 25861  98.1203   0.6762 0016660 104.0321 256.2744 14.79633869312099
DELTA 2 R/B             
1 25876U 99041E   23321.53250010  .00000774  00000+0  16915-3 0  9990
2 25876  51.7636  57.4769 0521929  28.5235 334.3228 14.07120139244103
HELIOS 1B               
1 25977U 99064A   23321.51823910  .00000896  00000+0  11526-3 0  9998
2 25977  98.2706 180.7629 0000347  19.4295 340.6930 14.83754690560071
TERRA                   
1 25994U 99068A   23321.59040458  .00000531  00000+0  12156-3 0  9993
2 25994  98.0779  26.0609 0001031 351.6181 144.7329 14.59437736272037
SL-16 R/B               
1 26070U 00006B   23321.58261329 -.00000133  00000+0 -43428-4 0  9991
2 26070  71.0025  70.2902 0015807  17.2328 342.9328 14.15579370229237
TITAN 4B R/B            
1 26474U 00047B   23321.50560849  .00002640  00000+0  21456-3 0  9994
2 26474  67.9933 234.4831 0055881 263.9991  95.4783 15.00082354266045
ENVISAT                 
1 27386U 02009A   23321.53885976  .00000155  00000+0  64483-4 0  9998
2 27386  98.2533 285.4064 0001351  86.1549  25.6767 14.38448311137933
